NORAD_CAT_ID,OBJECT_NAME,OBJECT_TYPE,EPOCH,MEAN_MOTION,ECCENTRICITY,INCLINATION,RA_OF_ASC_NODE,ARG_OF_PERICENTER,MEAN_ANOMALY,BSTAR,MEAN_MOTION_DOT,MEAN_MOTION_DDOT,TLE_LINE0,TLE_LINE1,TLE_LINE2,SEMIMAJOR_AXIS,PERIOD,APOGEE,PERIGEE,DECAYED
53704.0,STARLINK-4714,PAYLOAD,2023-04-06 23:43:44,15.08838745,0.000142,53.217,357.4742,76.0283,284.0867,7.6236e-05,9.26e-06,0.0,0 STARLINK-4714,1 53704U 22107E   23096.98870456  .00000926  00000-0  76236-4 0  9993,2 53704  53.2170 357.4742 0001420  76.0283 284.0867 15.08838745 32913,6917.884,95.438,540.732,538.767,0.0
53704.0,STARLINK-4714,PAYLOAD,2023-04-08 02:45:16,15.08854383,0.0001097,53.2169,352.4166,83.4605,276.6512,0.00034642,5.232e-05,0.0,0 STARLINK-4714,1 53704U 22107E   23098.11477830  .00005232  00000-0  34642-3 0  9998,2 53704  53.2169 352.4166 0001097  83.4605 276.6512 15.08854383 33085,6917.836,95.437,540.46,538.943,0.0
53704.0,STARLINK-4714,PAYLOAD,2023-04-08 17:03:45,15.08838129,9.39e-05,53.217,349.7426,59.7702,300.3383,4.2263e-06,-2.2e-06,0.0,0 STARLINK-4714,1 53704U 22107E   23098.71094599 -.00000220  00000-0  42263-5 0  9994,2 53704  53.2170 349.7426 0000939  59.7702 300.3383 15.08838129 33174,6917.886,95.438,540.401,539.102,0.0
53704.0,STARLINK-4714,PAYLOAD,2023-04-09 01:00:41,15.08842549,0.0001006,53.2175,348.2558,87.6016,272.5092,6.9538e-05,8.19e-06,0.0,0 STARLINK-4714,1 53704U 22107E   23099.04214392  .00000819  00000-0  69538-4 0  9992,2 53704  53.2175 348.2558 0001006  87.6016 272.5092 15.08842549 33812,6917.873,95.437,540.434,539.042,0.0
53704.0,STARLINK-4714,PAYLOAD,2023-04-09 23:16:05,15.08835834,0.0001105,53.2175,344.0912,98.0416,262.0701,-3.5256e-05,-8.49e-06,0.0,0 STARLINK-4714,1 53704U 22107E   23099.96950774 -.00000849  00000-0 -35256-4 0  9999,2 53704  53.2175 344.0912 0001105  98.0416 262.0701 15.08835834 33360,6917.893,95.438,540.523,538.994,0.0
53704.0,STARLINK-4714,PAYLOAD,2023-04-10 02:26:51,15.08843586,0.0001198,53.218,343.4967,98.1744,261.9384,0.00012972,1.777e-05,0.0,0 STARLINK-4714,1 53704U 22107E   23100.10198670  .00001777  00000-0  12972-3 0  9995,2 53704  53.2180 343.4967 0001198  98.1744 261.9384 15.08843586 33971,6917.869,95.437,540.563,538.906,0.0
53704.0,STARLINK-4714,PAYLOAD,2023-04-11 02:17:38,15.08846558,9.83e-05,53.217,339.035,107.1904,252.9196,0.00025358,3.751e-05,0.0,0 STARLINK-4714,1 53704U 22107E   23101.09558568  .00003751  00000-0  25358-3 0  9996,2 53704  53.2170 339.0350 0000983 107.1904 252.9196 15.08846558 34128,6917.86,95.437,540.405,539.045,0.0
53704.0,STARLINK-4714,PAYLOAD,2023-04-11 21:22:16,15.08838903,0.0001088,53.2174,335.4627,117.2192,242.8911,4.8556e-05,4.85e-06,0.0,0 STARLINK-4714,1 53704U 22107E   23101.89047278  .00000485  00000-0  48556-4 0  9992,2 53704  53.2174 335.4627 0001088 117.2192 242.8911 15.08838903 34248,6917.884,95.438,540.501,538.996,0.0
53704.0,STARLINK-4714,PAYLOAD,2023-04-12 00:33:03,15.08838843,0.0001017,53.2173,334.8724,97.7405,262.3703,4.5927e-05,4.43e-06,0.0,0 STARLINK-4714,1 53704U 22107E   23102.02295234  .00000443  00000-0  45927-4 0  9998,2 53704  53.2173 334.8724 0001017  97.7405 262.3703 15.08838843 34260,6917.884,95.438,540.452,539.045,0.0
53704.0,STARLINK-4714,PAYLOAD,2023-04-12 21:13:03,15.08845316,9.78e-05,53.2173,331.0069,95.6932,264.4172,9.5392e-05,1.231e-05,0.0,0 STARLINK-4714,1 53704U 22107E   23102.88407094  .00001231  00000-0  95392-4 0  9998,2 53704  53.2173 331.0069 0000978  95.6932 264.4172 15.08845316 33803,6917.864,95.437,540.406,539.053,0.0
53704.0,STARLINK-4714,PAYLOAD,2023-04-13 01:59:13,15.08847095,0.0001071,53.2171,330.1146,87.2679,272.8436,0.00020132,2.918e-05,0.0,0 STARLINK-4714,1 53704U 22107E   23103.08279068  .00002918  00000-0  20132-3 0  9991,2 53704  53.2171 330.1146 0001071  87.2679 272.8436 15.08847095 34428,6917.859,95.437,540.465,538.983,0.0
53704.0,STARLINK-4714,PAYLOAD,2023-04-13 21:03:51,15.08841945,0.0001149,53.2173,326.5458,82.9436,277.1687,0.00013957,1.934e-05,0.0,0 STARLINK-4714,1 53704U 22107E   23103.87767396  .00001934  00000-0  13957-3 0  9998,2 53704  53.2173 326.5458 0001149  82.9436 277.1687 15.08841945 33955,6917.874,95.437,540.534,538.945,0.0
53704.0,STARLINK-4714,PAYLOAD,2023-04-14 00:14:37,15.08845475,0.0001092,53.2171,325.9512,81.7238,278.3878,0.00021214,3.09e-05,0.0,0 STARLINK-4714,1 53704U 22107E   23104.01015273  .00003090  00000-0  21214-3 0  9995,2 53704  53.2171 325.9512 0001092  81.7238 278.3878 15.08845475 34566,6917.864,95.437,540.484,538.973,0.0
53704.0,STARLINK-4714,PAYLOAD,2023-04-15 00:05:24,15.0885061,0.0001199,53.2162,321.4914,76.3433,283.7693,0.00030333,4.544e-05,0.0,0 STARLINK-4714,1 53704U 22107E   23105.00375008  .00004544  00000-0  30333-3 0  9997,2 53704  53.2162 321.4914 0001199  76.3433 283.7693 15.08850610 34122,6917.848,95.437,540.542,538.884,0.0
53704.0,STARLINK-4714,PAYLOAD,2023-04-15 20:45:25,15.08842001,9.9e-05,53.2164,317.6249,87.396,272.7145,0.00011074,1.475e-05,0.0,0 STARLINK-4714,1 53704U 22107E   23105.86487354  .00001475  00000-0  11074-3 0  9990,2 53704  53.2164 317.6249 0000990  87.3960 272.7145 15.08842001 34256,6917.874,95.437,540.424,539.054,0.0
53704.0,STARLINK-4714,PAYLOAD,2023-04-16 14:14:39,15.08842168,9.64e-05,53.2156,314.3544,89.6092,270.501,4.4445e-05,4.2e-06,0.0,0 STARLINK-4714,1 53704U 22107E   23106.59351458  .00000420  00000-0  44445-4 0  9994,2 53704  53.2156 314.3544 0000964  89.6092 270.5010 15.08842168 34959,6917.874,95.437,540.406,539.072,0.0
53704.0,STARLINK-4714,PAYLOAD,2023-04-16 20:36:12,15.08844757,9.54e-05,53.2157,313.1647,92.7933,267.3169,0.00029048,4.339e-05,0.0,0 STARLINK-4714,1 53704U 22107E   23106.85847323  .00004339  00000-0  29048-3 0  9998,2 53704  53.2157 313.1647 0000954  92.7933 267.3169 15.08844757 34998,6917.866,95.437,540.391,539.071,0.0
53704.0,STARLINK-4714,PAYLOAD,2023-04-17 14:05:26,15.08841381,0.0001419,53.2154,309.8948,102.3898,257.7253,0.00011263,1.505e-05,0.0,0 STARLINK-4714,1 53704U 22107E   23107.58711582  .00001505  00000-0  11263-3 0  9998,2 53704  53.2154 309.8948 0001419 102.3898 257.7253 15.08841381 35107,6917.876,95.437,540.723,538.76,0.0
53704.0,STARLINK-4714,PAYLOAD,2023-04-17 20:26:59,15.08843193,0.0001121,53.2168,308.7076,100.2635,259.8484,0.00014328,1.993e-05,0.0,0 STARLINK-4714,1 53704U 22107E   23107.85207552  .00001993  00000-0  14328-3 0  9991,2 53704  53.2168 308.7076 0001121 100.2635 259.8484 15.08843193 34558,6917.871,95.437,540.511,538.96,0.0
53704.0,STARLINK-4714,PAYLOAD,2023-04-18 05:59:18,15.08836084,6.64e-05,53.2165,306.9215,130.5505,229.5545,1.8726e-05,1e-07,0.0,0 STARLINK-4714,1 53704U 22107E   23108.24951514  .00000010  00000-0  18726-4 0  9995,2 53704  53.2165 306.9215 0000664 130.5505 229.5545 15.08836084 35209,6917.892,95.438,540.217,539.298,0.0
53704.0,STARLINK-4714,PAYLOAD,2023-04-18 15:31:37,15.0883555,7.78e-05,53.2165,305.1374,118.5361,241.571,2.9989e-05,1.9e-06,0.0,0 STARLINK-4714,1 53704U 22107E   23108.64695793  .00000190  00000-0  29989-4 0  9995,2 53704  53.2165 305.1374 0000778 118.5361 241.5710 15.08835550 34673,6917.894,95.438,540.297,539.221,0.0
53704.0,STARLINK-4714,PAYLOAD,2023-04-18 20:17:46,15.0885313,0.0001233,53.2166,304.2464,118.2543,241.8574,0.00042014,6.407e-05,0.0,0 STARLINK-4714,1 53704U 22107E   23108.84567278  .00006407  00000-0  42014-3 0  9993,2 53704  53.2166 304.2464 0001233 118.2543 241.8574 15.08853130 34709,6917.84,95.437,540.558,538.852,0.0
53704.0,STARLINK-4714,PAYLOAD,2023-04-19 05:50:05,15.0884152,8.6e-05,53.2163,302.4594,93.8899,266.2191,0.00016019,2.263e-05,0.0,0 STARLINK-4714,1 53704U 22107E   23109.24311577  .00002263  00000-0  16019-3 0  9999,2 53704  53.2163 302.4594 0000860  93.8899 266.2191 15.08841520 34769,6917.876,95.437,540.336,539.146,0.0
53704.0,STARLINK-4714,PAYLOAD,2023-04-19 16:57:47,15.0883819,8.94e-05,53.217,300.3778,93.633,266.4764,0.00010655,1.408e-05,0.0,0 STARLINK-4714,1 53704U 22107E   23109.70679841  .00001408  00000-0  10655-3 0  9991,2 53704  53.2170 300.3778 0000894  93.6330 266.4764 15.08838190 35424,6917.886,95.438,540.369,539.132,0.0
53704.0,STARLINK-4714,PAYLOAD,2023-04-20 12:02:25,15.08841974,0.000111,53.2166,296.8113,93.5217,266.5902,0.00018383,2.639e-05,0.0,0 STARLINK-4714,1 53704U 22107E   23110.50167865  .00002639  00000-0  18383-3 0  9992,2 53704  53.2166 296.8113 0001110  93.5217 266.5902 15.08841974 35548,6917.874,95.437,540.507,538.971,0.0
53704.0,STARLINK-4714,PAYLOAD,2023-04-20 18:23:57,15.08843507,0.0001167,53.2166,295.6209,92.3323,267.7803,0.00015218,2.135e-05,0.0,0 STARLINK-4714,1 53704U 22107E   23110.76663800  .00002135  00000-0  15218-3 0  9995,2 53704  53.2166 295.6209 0001167  92.3323 267.7803 15.08843507 35589,6917.87,95.437,540.542,538.927,0.0
53704.0,STARLINK-4714,PAYLOAD,2023-04-21 05:31:39,15.08834947,0.0001266,53.2173,293.538,79.3096,280.8039,-5.251e-05,-1.123e-05,0.0,0 STARLINK-4714,1 53704U 22107E   23111.23032272 -.00001123  00000-0 -52510-4 0  9996,2 53704  53.2173 293.5380 0001266  79.3096 280.8039 15.08834947 35659,6917.896,95.438,540.637,538.885,0.0
53704.0,STARLINK-4714,PAYLOAD,2023-04-22 11:43:59,15.08838806,6.45e-05,53.2169,287.887,95.2136,264.893,-2.1171e-05,-6.24e-06,0.0,0 STARLINK-4714,1 53704U 22107E   23112.48887974 -.00000624  00000-0 -21171-4 0  9995,2 53704  53.2169 287.8870 0000645  95.2136 264.8930 15.08838806 35847,6917.884,95.438,540.195,539.303,0.0
53704.0,STARLINK-4714,PAYLOAD,2023-04-22 18:05:31,15.08848913,9.38e-05,53.2154,286.6981,83.7388,276.3711,0.00017645,2.522e-05,0.0,0 STARLINK-4714,1 53704U 22107E   23112.75383504  .00002522  00000-0  17645-3 0  9992,2 53704  53.2154 286.6981 0000938  83.7388 276.3711 15.08848913 35291,6917.853,95.437,540.367,539.069,0.0
53704.0,STARLINK-4714,PAYLOAD,2023-04-23 13:10:09,15.08836896,0.0001113,53.2155,283.1305,78.5664,281.5453,7.584e-05,9.19e-06,0.0,0 STARLINK-4714,1 53704U 22107E   23113.54872217  .00000919  00000-0  75840-4 0  9994,2 53704  53.2155 283.1305 0001113  78.5664 281.5453 15.08836896 35411,6917.89,95.438,540.525,538.985,0.0
